H1 CPF  1  DGF 2022 10 31 19  8041 larets     NONE      
H2   304206 5557    27944 2022 10 26 00 00 00 2022 11 02 00 00 00    30 1 1  0 0 0
H5  0.0650
H9
10 0 59879  36000.000000  0      -3220534.880      -6287921.112        254931.874
10 0 59879  36030.000000  0      -3257588.723      -6255701.817        477529.414
10 0 59879  36060.000000  0      -3291191.045      -6216997.792        699640.113
10 0 59879  36090.000000  0      -3321279.591      -6171863.436        921037.554
10 0 59879  36120.000000  0      -3347795.938      -6120359.972       1141496.056
10 0 59879  36150.000000  0      -3370685.589      -6062555.361       1360790.912
10 0 59879  36180.000000  0      -3389898.058      -5998524.218       1578698.617
10 0 59879  36210.000000  0      -3405386.944      -5928347.707       1794997.108
10 0 59879  36240.000000  0      -3417110.009      -5852113.444       2009465.986
10 0 59879  36270.000000  0      -3425029.247      -5769915.385       2221886.748
10 0 59879  36300.000000  0      -3429110.950      -5681853.705       2432043.015
10 0 59879  36330.000000  0      -3429325.765      -5588034.676       2639720.750
10 0 59879  36360.000000  0      -3425648.748      -5488570.535       2844708.483
10 0 59879  36390.000000  0      -3418059.416      -5383579.348       3046797.528
10 0 59879  36420.000000  0      -3406541.785      -5273184.862       3245782.194
10 0 59879  36450.000000  0      -3391084.414      -5157516.362       3441460.000
10 0 59879  36480.000000  0      -3371680.433      -5036708.506       3633631.876
10 0 59879  36510.000000  0      -3348327.575      -4910901.172       3822102.371
10 0 59879  36540.000000  0      -3321028.193      -4780239.286       4006679.848
10 0 59879  36570.000000  0      -3289789.281      -4644872.654       4187176.682
10 0 59879  36600.000000  0      -3254622.479      -4504955.778       4363409.443
10 0 59879  36630.000000  0      -3215544.087      -4360647.680       4535199.085
10 0 59879  36660.000000  0      -3172575.059      -4212111.716       4702371.120
10 0 59879  36690.000000  0      -3125741.002      -4059515.384       4864755.795
10 0 59879  36720.000000  0      -3075072.159      -3903030.131       5022188.263
10 0 59879  36750.000000  0      -3020603.400      -3742831.157       5174508.743
10 0 59879  36780.000000  0      -2962374.192      -3579097.216       5321562.679
10 0 59879  36810.000000  0      -2900428.571      -3412010.407       5463200.891
10 0 59879  36840.000000  0      -2834815.117      -3241755.978       5599279.717
10 0 59879  36870.000000  0      -2765586.909      -3068522.110       5729661.159
10 0 59879  36900.000000  0      -2692801.484      -2892499.714       5854213.012
10 0 59879  36930.000000  0      -2616520.791      -2713882.216       5972808.996
10 0 59879  36960.000000  0      -2536811.136      -2532865.346       6085328.880
10 0 59879  36990.000000  0      -2453743.124      -2349646.920       6191658.597
10 0 59879  37020.000000  0      -2367391.598      -2164426.626       6291690.358
10 0 59879  37050.000000  0      -2277835.566      -1977405.805       6385322.756
10 0 59879  37080.000000  0      -2185158.132      -1788787.229       6472460.868
10 0 59879  37110.000000  0      -2089446.413      -1598774.880       6553016.343
10 0 59879  37140.000000  0      -1990791.459      -1407573.723       6626907.488
10 0 59879  37170.000000  0      -1889288.158      -1215389.493       6694059.338
10 0 59879  37200.000000  0      -1785035.155      -1022428.463       6754403.731
10 0 59879  37230.000000  0      -1678134.745       -828897.236       6807879.363
10 0 59879  37260.000000  0      -1568692.784       -635002.522       6854431.846
10 0 59879  37290.000000  0      -1456818.584       -440950.923       6894013.763
10 0 59879  37320.000000  0      -1342624.804       -246948.720       6926584.715
10 0 59879  37350.000000  0      -1226227.341        -53201.652       6952111.366
10 0 59879  37380.000000  0      -1107745.211        140085.300       6970567.471
10 0 59879  37410.000000  0       -987300.430        332708.130       6981933.909
10 0 59879  37440.000000  0       -865017.890        524464.017       6986198.699
10 0 59879  37470.000000  0       -741025.229        715151.542       6983357.014
10 0 59879  37500.000000  0       -615452.701        904570.894       6973411.188
10 0 59879  37530.000000  0       -488433.039       1092524.079       6956370.716
10 0 59879  37560.000000  0       -360101.320       1278815.126       6932252.248
10 0 59879  37590.000000  0       -230594.820       1463250.291       6901079.578
10 0 59879  37620.000000  0       -100052.870       1645638.260       6862883.621
10 0 59879  37650.000000  0         31383.294       1825790.348       6817702.384
10 0 59879  37680.000000  0        163570.684       2003520.687       6765580.935
10 0 59879  37710.000000  0        296364.706       2178646.426       6706571.359
10 0 59879  37740.000000  0        429619.324       2350987.907       6640732.715
10 0 59879  37770.000000  0        563187.211       2520368.860       6568130.982
10 0 59879  37800.000000  0        696919.919       2686616.583       6488839.001
10 0 59879  37830.000000  0        830668.032       2849562.115       6402936.411
10 0 59879  37860.000000  0        964281.340       3009040.418       6310509.572
10 0 59879  37890.000000  0       1097609.001       3164890.543       6211651.489
10 0 59879  37920.000000  0       1230499.712       3316955.800       6106461.723
10 0 59879  37950.000000  0       1362801.877       3465083.917       5995046.300
10 0 59879  37980.000000  0       1494363.784       3609127.197       5877517.611
10 0 59879  38010.000000  0       1625033.772       3748942.671       5753994.310
10 0 59879  38040.000000  0       1754660.412       3884392.248       5624601.197
10 0 59879  38070.000000  0       1883092.679       4015342.859       5489469.105
10 0 59879  38100.000000  0       2010180.135       4141666.592       5348734.771
10 0 59879  38130.000000  0       2135773.103       4263240.826       5202540.702
10 0 59879  38160.000000  0       2259722.845       4379948.356       5051035.037
10 0 59879  38190.000000  0       2381881.738       4491677.511       4894371.397
10 0 59879  38220.000000  0       2502103.452       4598322.266       4732708.742
10 0 59879  38250.000000  0       2620243.120       4699782.349       4566211.209
10 0 59879  38280.000000  0       2736157.521       4795963.344       4395047.954
10 0 59879  38310.000000  0       2849705.247       4886776.783       4219392.987
10 0 59879  38340.000000  0       2960746.880       4972140.239       4039424.997
10 0 59879  38370.000000  0       3069145.165       5051977.404       3855327.182
10 0 59879  38400.000000  0       3174765.185       5126218.181       3667287.066
10 0 59879  38430.000000  0       3277474.535       5194798.746       3475496.306
10 0 59879  38460.000000  0       3377143.492       5257661.622       3280150.490
10 0 59879  38490.000000  0       3473645.185       5314755.729       3081448.934
10 0 59879  38520.000000  0       3566855.755       5366036.426       2879594.469
10 0 59879  38550.000000  0       3656654.515       5411465.542       2674793.227
10 0 59879  38580.000000  0       3742924.098       5451011.404       2467254.435
10 0 59879  38610.000000  0       3825550.612       5484648.861       2257190.196
10 0 59879  38640.000000  0       3904423.791       5512359.299       2044815.276
10 0 59879  38670.000000  0       3979437.136       5534130.655       1830346.881
10 0 59879  38700.000000  0       4050488.061       5549957.419       1614004.428
10 0 59879  38730.000000  0       4117478.036       5559840.634       1396009.317
10 0 59879  38760.000000  0       4180312.719       5563787.883       1176584.685
10 0 59879  38790.000000  0       4238902.085       5561813.255        955955.171
10 0 59879  38820.000000  0       4293160.546       5553937.318        734346.677
10 0 59879  38850.000000  0       4343007.068       5540187.073        511986.127
10 0 59879  38880.000000  0       4388365.289       5520595.909        289101.233
10 0 59879  38910.000000  0       4429163.619       5495203.544         65920.248
10 0 59879  38940.000000  0       4465335.351       5464055.968       -157328.266
10 0 59879  38970.000000  0       4496818.753       5427205.374       -380415.688
10 0 59879  39000.000000  0       4523557.162       5384710.076       -603113.577
10 0 59879  39030.000000  0       4545499.067       5336634.432       -825193.913
10 0 59879  39060.000000  0       4562598.190       5283048.748      -1046429.344
10 0 59879  39090.000000  0       4574813.557       5224029.180      -1266593.422
10 0 59879  39120.000000  0       4582109.561       5159657.630      -1485460.845
10 0 59879  39150.000000  0       4584456.024       5090021.637      -1702807.693
10 0 59879  39180.000000  0       4581828.248       5015214.254      -1918411.667
10 0 59879  39210.000000  0       4574207.066       4935333.928      -2132052.319
10 0 59879  39240.000000  0       4561578.875       4850484.370      -2343511.291
10 0 59879  39270.000000  0       4543935.675       4760774.414      -2552572.536
10 0 59879  39300.000000  0       4521275.088       4666317.882      -2759022.553
10 0 59879  39330.000000  0       4493600.380       4567233.430      -2962650.605
10 0 59879  39360.000000  0       4460920.472       4463644.398      -3163248.941
10 0 59879  39390.000000  0       4423249.942       4355678.649      -3360613.009
10 0 59879  39420.000000  0       4380609.020       4243468.408      -3554541.663
10 0 59879  39450.000000  0       4333023.589       4127150.094      -3744837.371
10 0 59879  39480.000000  0       4280525.161       4006864.153      -3931306.414
10 0 59879  39510.000000  0       4223150.866       3882754.882      -4113759.084
10 0 59879  39540.000000  0       4160943.416       3754970.251      -4292009.879
10 0 59879  39570.000000  0       4093951.078       3623661.721      -4465877.691
99
